STARLINK-11417 [DTC]    
1 62983U 25031C   25050.58335648  .00072343  00000+0  30595-3 0  9996
2 62983  43.0044 154.3736 0002025 271.8920 275.1795 15.84449447  2459
STARLINK-11544 [DTC]    
1 62984U 25031D   25050.58335648 -.00270089  00000+0 -11702-2 0  9994
2 62984  43.0044 154.3679 0001668 275.6689 273.7106 15.84554901  2397
STARLINK-11582 [DTC]    
1 62985U 25031E   25050.58335648  .00169916  00000+0  71286-3 0  9993
2 62985  43.0041 154.3608 0002462 263.8026 288.3570 15.84290506  2456
STARLINK-11571 [DTC]    
1 62986U 25031F   25050.58335648  .00147425  00000+0  61777-3 0  9999
2 62986  43.0043 154.3524 0002142 265.0303 290.4915 15.84380427  2452
STARLINK-11539 [DTC]    
1 62987U 25031G   25050.58335648  .00031457  00000+0  13535-3 0  9996
2 62987  43.0044 154.3459 0002227 281.1502 276.8764 15.84392428  2459
STARLINK-11542 [DTC]    
1 62988U 25031H   25050.58335648  .00062058  00000+0  26393-3 0  9994
2 62988  43.0039 154.3386 0002153 276.0698 284.8580 15.84382885  2282
STARLINK-11573 [DTC]    
1 62989U 25031J   25050.58335648 -.00024652  00000+0 -10246-3 0  9995
2 62989  43.0039 154.3294 0002107 265.5738 298.9799 15.84407342  2394
STARLINK-11572 [DTC]    
1 62990U 25031K   25050.58335648  .00041449  00000+0  17741-3 0  9995
2 62990  43.0040 154.3207 0002453 277.4302 290.6968 15.84389560  2450
STARLINK-11583 [DTC]    
1 62991U 25031L   25050.58335648 -.00264199  00000+0 -11428-2 0  9992
2 62991  43.0039 154.3129 0002346 287.1630 283.9376 15.84570495  2452
STARLINK-11570 [DTC]    
1 62992U 25031M   25050.58335648 -.00579084  00000+0 -25685-2 0  9995
2 62992  43.0037 154.3055 0001981 288.8501 285.1783 15.84810181  2442
STARLINK-11576 [DTC]    
1 62993U 25031N   25050.58335648 -.00810738  00000+0 -36494-2 0  9990
2 62993  43.0041 154.2974 0001694 287.8253 289.3622 15.85056057  2455
STARLINK-32899          
1 62994U 25031P   25050.58335648 -.00962461  00000+0 -43411-2 0  9999
2 62994  43.0038 154.2914 0001506 291.7373 287.9137 15.85379807  2394
STARLINK-32819          
1 62995U 25031Q   25050.58335648 -.00958759  00000+0 -43147-2 0  9991
2 62995  43.0038 154.2875 0001586 291.8099 289.3289 15.85415900  2394
STARLINK-32703          
1 62996U 25031R   25050.58335648 -.00990132  00000+0 -44513-2 0  9991
2 62996  43.0033 154.2750 0001557 293.6892 292.2624 15.85513202  2391
STARLINK-32881          
1 62997U 25031S   25050.58335648 -.01013206  00000+0 -45553-2 0  9996
2 62997  43.0036 154.2691 0001655 290.0736 298.2962 15.85567059  2396
STARLINK-32898          
1 62998U 25031T   25050.58335648 -.01026282  00000+0 -46114-2 0  9999
2 62998  43.0036 154.2637 0001583 292.9365 297.6135 15.85611652  2390
STARLINK-32658          
1 62999U 25031U   25050.58335648 -.01042728  00000+0 -46839-2 0  9997
2 62999  43.0035 154.2579 0001562 293.8427 299.0650 15.85658234  2396
STARLINK-32673          
1 63000U 25031V   25050.58335648 -.01056803  00000+0 -47449-2 0  9998
2 63000  43.0038 154.2515 0001594 291.7798 303.6372 15.85701990  1408
STARLINK-32437          
1 63001U 25031W   25050.58335648 -.00977022  00000+0 -43955-2 0  9991
2 63001  43.0039 154.2809 0001616 289.5627 294.2635 15.85466203  1375
2025-009DM              
1 63002U 25009DM  25050.18806132  .00036115  00000+0  17602-2 0  9991
2 63002  97.4506 132.3107 0002370 124.0606 236.0853 15.18235454 63006
2025-009DN              
1 63003U 25009DN  25050.11758414  .00005948  00000+0  29541-3 0  9990
2 63003  97.3615 131.9562 0003011 217.4207 142.6818 15.18037403 62998
2025-009DP              
1 63004U 25009DP  25050.04322250  .00046347  00000+0  21657-2 0  9995
2 63004  97.4523 132.2041 0001682 157.7723 202.3585 15.19638128  5337
